{
"type": "FeatureCollection",
"name": "MICROTERRITORIOS",
"crs": { "type": "name", "properties": { "name": "urn:ogc:def:crs:OGC:1.3:CRS84" } },
"features": [
{ "type": "Feature", "properties": { "id": 1 }, "geometry": { "type": "Polygon", "coordinates": [ [ [ -76.477754, 3.423869, 0.0 ], [ -76.47854, 3.419507, 0.0 ], [ -76.478759, 3.41835, 0.0 ], [ -76.478332, 3.417998, 0.0 ], [ -76.477283, 3.417299, 0.0 ], [ -76.476774, 3.417871, 0.0 ], [ -76.476388, 3.418206, 0.0 ], [ -76.475239, 3.41987, 0.0 ], [ -76.474776, 3.420576, 0.0 ], [ -76.47442, 3.421616, 0.0 ], [ -76.475053, 3.422357, 0.0 ], [ -76.475544, 3.422833, 0.0 ], [ -76.475953, 3.423397, 0.0 ], [ -76.476438, 3.42391, 0.0 ], [ -76.477754, 3.423869, 0.0 ] ] ] } },
{ "type": "Feature", "properties": { "id": 2 }, "geometry": { "type": "Polygon", "coordinates": [ [ [ -76.494415, 3.497299, 0.0 ], [ -76.490521, 3.495225, 0.0 ], [ -76.48933, 3.497559, 0.0 ], [ -76.493172, 3.499508, 0.0 ], [ -76.494415, 3.497299, 0.0 ] ] ] } },
{ "type": "Feature", "properties": { "id": 3 }, "geometry": { "type": "Polygon", "coordinates": [ [ [ -76.560479, 3.390637, 0.0 ], [ -76.560456, 3.390564, 0.0 ], [ -76.560449, 3.390432, 0.0 ], [ -76.560459, 3.390319, 0.0 ], [ -76.560525, 3.390224, 0.0 ], [ -76.560636, 3.390111, 0.0 ], [ -76.560795, 3.390032, 0.0 ], [ -76.560918, 3.389999, 0.0 ], [ -76.561057, 3.389955, 0.0 ], [ -76.561221, 3.389869, 0.0 ], [ -76.561353, 3.389763, 0.0 ], [ -76.561378, 3.389636, 0.0 ], [ -76.561406, 3.389419, 0.0 ], [ -76.561489, 3.38929, 0.0 ], [ -76.561664, 3.389104, 0.0 ], [ -76.561608, 3.389002, 0.0 ], [ -76.561561, 3.388862, 0.0 ], [ -76.561425, 3.388755, 0.0 ], [ -76.561079, 3.388485, 0.0 ], [ -76.560106, 3.387615, 0.0 ], [ -76.559719, 3.387965, 0.0 ], [ -76.559658, 3.388031, 0.0 ], [ -76.559626, 3.388104, 0.0 ], [ -76.559621, 3.388178, 0.0 ], [ -76.559633, 3.388283, 0.0 ], [ -76.559738, 3.388417, 0.0 ], [ -76.559728, 3.388627, 0.0 ], [ -76.559644, 3.388831, 0.0 ], [ -76.559504, 3.389086, 0.0 ], [ -76.55932, 3.389253, 0.0 ], [ -76.55911, 3.389443, 0.0 ], [ -76.558916, 3.389657, 0.0 ], [ -76.558765, 3.389892, 0.0 ], [ -76.55866, 3.39009, 0.0 ], [ -76.55873, 3.390483, 0.0 ], [ -76.559582, 3.390509, 0.0 ], [ -76.560479, 3.390637, 0.0 ] ] ] } },
{ "type": "Feature", "properties": { "id": 4 }, "geometry": { "type": "Polygon", "coordinates": [ [ [ -76.561669, 3.420541, 0.0 ], [ -76.561811, 3.420034, 0.0 ], [ -76.561815, 3.419386, 0.0 ], [ -76.560369, 3.419251, 0.0 ], [ -76.559423, 3.418532, 0.0 ], [ -76.557338, 3.417932, 0.0 ], [ -76.55697, 3.419007, 0.0 ], [ -76.55848, 3.41979, 0.0 ], [ -76.560829, 3.42049, 0.0 ], [ -76.561669, 3.420541, 0.0 ] ] ] } },
{ "type": "Feature", "properties": { "id": 5 }, "geometry": { "type": "Polygon", "coordinates": [ [ [ -76.467174, 3.406868, 0.0 ], [ -76.467956, 3.408859, 0.0 ], [ -76.468251, 3.409542, 0.0 ], [ -76.468963, 3.409625, 0.0 ], [ -76.470787, 3.409835, 0.0 ], [ -76.471268, 3.408297, 0.0 ], [ -76.467686, 3.406234, 0.0 ], [ -76.467174, 3.406868, 0.0 ] ] ] } },
{ "type": "Feature", "properties": { "id": 6 }, "geometry": { "type": "Polygon", "coordinates": [ [ [ -76.520529, 3.44724, 0.0 ], [ -76.524299, 3.446251, 0.0 ], [ -76.523388, 3.443344, 0.0 ], [ -76.519955, 3.444472, 0.0 ], [ -76.520529, 3.44724, 0.0 ] ] ] } },
{ "type": "Feature", "properties": { "id": 7 }, "geometry": { "type": "Polygon", "coordinates": [ [ [ -76.497883, 3.422168, 0.0 ], [ -76.50079, 3.419494, 0.0 ], [ -76.4993, 3.417868, 0.0 ], [ -76.496418, 3.42062, 0.0 ], [ -76.497883, 3.422168, 0.0 ] ] ] } },
{ "type": "Feature", "properties": { "id": 8 }, "geometry": { "type": "Polygon", "coordinates": [ [ [ -76.494515, 3.40834, 0.0 ], [ -76.495019, 3.407867, 0.0 ], [ -76.495207, 3.407689, 0.0 ], [ -76.495419, 3.40748, 0.0 ], [ -76.49584, 3.407076, 0.0 ], [ -76.49612, 3.406815, 0.0 ], [ -76.496653, 3.406298, 0.0 ], [ -76.496873, 3.406083, 0.0 ], [ -76.496266, 3.405461, 0.0 ], [ -76.495841, 3.404856, 0.0 ], [ -76.495429, 3.40513, 0.0 ], [ -76.494884, 3.405476, 0.0 ], [ -76.494566, 3.405668, 0.0 ], [ -76.494206, 3.405827, 0.0 ], [ -76.494023, 3.405962, 0.0 ], [ -76.493771, 3.406156, 0.0 ], [ -76.49346, 3.406438, 0.0 ], [ -76.493082, 3.406827, 0.0 ], [ -76.494515, 3.40834, 0.0 ] ] ] } },
{ "type": "Feature", "properties": { "id": 9 }, "geometry": { "type": "Polygon", "coordinates": [ [ [ -76.499155, 3.412762, 0.0 ], [ -76.499766, 3.412176, 0.0 ], [ -76.500211, 3.411732, 0.0 ], [ -76.50049, 3.411462, 0.0 ], [ -76.50082, 3.411195, 0.0 ], [ -76.500958, 3.4111, 0.0 ], [ -76.50141, 3.410687, 0.0 ], [ -76.501802, 3.410307, 0.0 ], [ -76.501051, 3.409532, 0.0 ], [ -76.500458, 3.408936, 0.0 ], [ -76.500011, 3.408453, 0.0 ], [ -76.499713, 3.408139, 0.0 ], [ -76.499478, 3.407905, 0.0 ], [ -76.498817, 3.408565, 0.0 ], [ -76.498317, 3.409044, 0.0 ], [ -76.497908, 3.409439, 0.0 ], [ -76.49744, 3.409888, 0.0 ], [ -76.497192, 3.410098, 0.0 ], [ -76.497708, 3.410661, 0.0 ], [ -76.497458, 3.410892, 0.0 ], [ -76.499155, 3.412762, 0.0 ] ] ] } },
{ "type": "Feature", "properties": { "id": 10 }, "geometry": { "type": "Polygon", "coordinates": [ [ [ -76.492196, 3.413732, 0.0 ], [ -76.49342, 3.412561, 0.0 ], [ -76.494249, 3.411752, 0.0 ], [ -76.495089, 3.41093, 0.0 ], [ -76.494847, 3.410682, 0.0 ], [ -76.494624, 3.410443, 0.0 ], [ -76.494516, 3.410327, 0.0 ], [ -76.494401, 3.410204, 0.0 ], [ -76.494373, 3.410149, 0.0 ], [ -76.494121, 3.409915, 0.0 ], [ -76.494049, 3.409829, 0.0 ], [ -76.493534, 3.409271, 0.0 ], [ -76.493062, 3.408791, 0.0 ], [ -76.492672, 3.408367, 0.0 ], [ -76.492554, 3.408306, 0.0 ], [ -76.492517, 3.408414, 0.0 ], [ -76.492472, 3.408498, 0.0 ], [ -76.492396, 3.408559, 0.0 ], [ -76.492295, 3.408629, 0.0 ], [ -76.492197, 3.408667, 0.0 ], [ -76.492084, 3.408708, 0.0 ], [ -76.491885, 3.408783, 0.0 ], [ -76.491722, 3.40885, 0.0 ], [ -76.491567, 3.408904, 0.0 ], [ -76.491487, 3.40897, 0.0 ], [ -76.491297, 3.409138, 0.0 ], [ -76.491047, 3.409349, 0.0 ], [ -76.490958, 3.409416, 0.0 ], [ -76.49079, 3.409542, 0.0 ], [ -76.490417, 3.409801, 0.0 ], [ -76.49026, 3.409904, 0.0 ], [ -76.489925, 3.41011, 0.0 ], [ -76.489679, 3.410274, 0.0 ], [ -76.489351, 3.410564, 0.0 ], [ -76.489715, 3.411001, 0.0 ], [ -76.490227, 3.411541, 0.0 ], [ -76.490714, 3.412061, 0.0 ], [ -76.491305, 3.412743, 0.0 ], [ -76.492196, 3.413732, 0.0 ] ] ] } }
]
}
